      2.10          N: GNSS NAV DATA                        RINEX VERSION / TYPE
fic2rin                                 01/16/2022 00:17:25 PGM / RUN BY / DATE
                                                            END OF HEADER
26 22  1 15 22  0  0.0 1.746886409819e-04 3.410605131648e-12 0.000000000000e+00
    9.000000000000e+01 6.846875000000e+01 4.771984486594e-09 2.939653789911e+00
    3.516674041748e-06 6.777849048376e-03 1.075305044651e-05 5.153691730499e+03
    5.976000000000e+05-1.061707735062e-07 2.837660124506e+00-8.009374141693e-08
    9.392411872569e-01 1.611250000000e+02 3.501989913079e-01-7.840683738807e-09
   -3.964450849577e-10 1.000000000000e+00 2.192000000000e+03 0.000000000000e+00
    2.400000000000e+00 0.000000000000e+00 6.984919309616e-09 9.000000000000e+01
    5.904000000000e+05 4.000000000000e+00
25 22  1 15 22  0  0.0 2.714185975492e-04 5.570655048359e-12 0.000000000000e+00
    7.500000000000e+01 6.637500000000e+01 4.349466887040e-09-2.694533003372e+00
    3.350898623466e-06 1.036981586367e-02 1.014210283756e-05 5.153728816986e+03
    5.976000000000e+05 1.750886440277e-07 2.884053171568e+00-1.564621925354e-07
    9.584240648379e-01 1.810625000000e+02 9.721638089934e-01-7.640318249923e-09
   -2.746542975968e-10 1.000000000000e+00 2.192000000000e+03 0.000000000000e+00
    2.400000000000e+00 0.000000000000e+00 5.587935447693e-09 7.500000000000e+01
    5.904000000000e+05 4.000000000000e+00
17 22  1 15 22  0  0.0 5.619409494102e-04 5.229594535194e-12 0.000000000000e+00
    6.700000000000e+01 1.000625000000e+02 4.192674641728e-09 1.065759214269e+00
    4.937872290611e-06 1.372408040334e-02 3.894791007042e-06 5.153739334106e+03
    5.976000000000e+05-2.123415470123e-07-2.285953843519e+00-1.974403858185e-07
    9.802362392311e-01 3.169375000000e+02-1.508455578190e+00-8.175340535748e-09
    1.260766801712e-10 1.000000000000e+00 2.192000000000e+03 0.000000000000e+00
    2.400000000000e+00 0.000000000000e+00-1.117587089539e-08 6.700000000000e+01
    5.904000000000e+05 4.000000000000e+00
23 22  1 15 22  0  0.0 1.083128154278e-05-3.865352482535e-12 0.000000000000e+00
    8.900000000000e+01-1.075625000000e+02 3.874089942825e-09-1.792379075966e+00
   -5.571171641350e-06 1.956898951903e-03 1.030415296555e-05 5.153705932617e+03
    5.976000000000e+05-7.636845111847e-08-2.797959329323e-01 4.097819328308e-08
    9.674387489071e-01 1.849375000000e+02 2.911123317845e+00-7.611388473453e-09
    2.042942239602e-10 1.000000000000e+00 2.192000000000e+03 0.000000000000e+00
    2.400000000000e+00 0.000000000000e+00-8.381903171539e-09 3.450000000000e+02
    5.904000000000e+05 4.000000000000e+00
14 22  1 15 22  0  0.0-7.113115862012e-05-5.343281372916e-12 0.000000000000e+00
    2.150000000000e+02 6.537500000000e+01 4.460185784641e-09-2.420019985078e+00
    3.449618816376e-06 1.330378348939e-03 1.049600541592e-05 5.153649208069e+03
    5.976000000000e+05-1.117587089539e-08 2.929570163305e+00 0.000000000000e+00
    9.544440791698e-01 1.752500000000e+02 3.038457578537e+00-7.792824602424e-09
   -2.967980771169e-10 1.000000000000e+00 2.192000000000e+03 0.000000000000e+00
    2.400000000000e+00 0.000000000000e+00-7.916241884232e-09 7.270000000000e+02
    5.904000000000e+05 4.000000000000e+00
22 22  1 15 22  0  0.0-4.166681319475e-04 8.867573342286e-12 0.000000000000e+00
    6.300000000000e+01-1.171562500000e+02 4.683766526247e-09-3.999794895512e-02
   -6.107613444328e-06 6.888010422699e-03 9.223818778992e-06 5.153638566971e+03
    5.976000000000e+05 0.000000000000e+00-3.599211747445e-01-1.508742570877e-07
    9.384237291151e-01 1.936250000000e+02-8.557786196888e-01-8.123909822024e-09
    3.142988060926e-11 1.000000000000e+00 2.192000000000e+03 0.000000000000e+00
    2.400000000000e+00 6.300000000000e+01-1.769512891769e-08 6.300000000000e+01
    5.904000000000e+05 4.000000000000e+00
31 22  1 15 21 59 44.0-1.601185649633e-04-1.818989403546e-12 0.000000000000e+00
    9.000000000000e+00-9.218750000000e+00 5.000922594214e-09-2.252078085303e+00
   -7.543712854385e-07 1.046034961473e-02 6.271526217461e-06 5.153666942596e+03
    5.975840000000e+05 6.519258022308e-08 1.865964197676e+00-2.328306436539e-07
    9.547833781487e-01 2.563125000000e+02 3.665145055660e-01-8.032477442070e-09
   -2.392956819114e-10 1.000000000000e+00 2.192000000000e+03 0.000000000000e+00
    2.400000000000e+00 0.000000000000e+00-1.303851604462e-08 9.000000000000e+00
    5.914500000000e+05 4.000000000000e+00
 9 22  1 15 21 59 44.0-3.578010946512e-04 1.136868377216e-12 0.000000000000e+00
    6.000000000000e+00 8.593750000000e+00 4.682695053045e-09 1.492244721091e+00
    4.637986421585e-07 2.331825438887e-03 7.616356015205e-06 5.153634153366e+03
    5.975840000000e+05 4.470348358154e-08 7.757165393647e-01-6.891787052155e-08
    9.540155056151e-01 2.281562500000e+02 1.858064548304e+00-7.945330954926e-09
    5.935961542339e-10 1.000000000000e+00 2.192000000000e+03 0.000000000000e+00
    2.400000000000e+00 0.000000000000e+00 1.396983861923e-09 6.000000000000e+00
    5.916000000000e+05 4.000000000000e+00
32 22  1 15 21 59 44.0-5.112588405609e-05-6.139089236967e-12 0.000000000000e+00
    3.300000000000e+01 7.375000000000e+00 4.659122642588e-09 1.768835226424e+00
    4.507601261139e-07 5.418136948720e-03 7.623806595802e-06 5.153759376526e+03
    5.975840000000e+05-1.545995473862e-07 7.867832937337e-01 1.862645149231e-08
    9.578734107695e-01 2.281875000000e+02-2.373636002256e+00-7.957117160155e-09
    5.918103655629e-10 1.000000000000e+00 2.192000000000e+03 0.000000000000e+00
    2.400000000000e+00 0.000000000000e+00 4.656612873077e-10 3.300000000000e+01
    5.919000000000e+05 4.000000000000e+00
 9 22  1 15 23 59 44.0-3.577927127481e-04 1.136868377216e-12 0.000000000000e+00
    5.100000000000e+01 7.250000000000e+00 4.662694219930e-09 2.542548450160e+00
    4.712492227554e-07 2.331825788133e-03 7.713213562965e-06 5.153633769989e+03
    6.047840000000e+05 1.303851604462e-08 7.756600019697e-01 2.421438694000e-08
    9.540198753514e-01 2.265312500000e+02 1.857967003852e+00-7.868899199808e-09
    5.468084910542e-10 1.000000000000e+00 2.192000000000e+03 0.000000000000e+00
    2.400000000000e+00 0.000000000000e+00 1.396983861923e-09 5.100000000000e+01
    5.976000000000e+05 4.000000000000e+00
31 22  1 15 23 59 44.0-1.601316034794e-04-1.818989403546e-12 0.000000000000e+00
    3.000000000000e+01-8.187500000000e+00 4.913418949336e-09-1.201936814750e+00
   -4.973262548447e-07 1.046046381816e-02 5.660578608513e-06 5.153665985107e+03
    6.047840000000e+05 1.564621925354e-07 1.865906068626e+00-1.117587089539e-07
    9.547819971540e-01 2.597812500000e+02 3.665618938714e-01-8.061407218540e-09
   -1.882221259213e-10 1.000000000000e+00 2.192000000000e+03 0.000000000000e+00
    2.400000000000e+00 0.000000000000e+00-1.303851604462e-08 3.000000000000e+01
    5.976000000000e+05 4.000000000000e+00
32 22  1 15 23 59 44.0-5.117012187839e-05-6.139089236967e-12 0.000000000000e+00
    4.100000000000e+01 8.906250000000e+00 4.540546274835e-09 2.819030361621e+00
    5.364418029785e-07 5.418358487077e-03 7.893890142441e-06 5.153758594513e+03
    6.047840000000e+05 5.587935447693e-09 7.867265325122e-01-5.960464477539e-08
    9.578785339086e-01 2.254687500000e+02-2.373701637538e+00-7.786395763209e-09
    6.118111986779e-10 1.000000000000e+00 2.192000000000e+03 0.000000000000e+00
    2.400000000000e+00 0.000000000000e+00 4.656612873077e-10 4.100000000000e+01
    5.976000000000e+05 4.000000000000e+00
 2 22  1 16  0  0  0.0-6.487201899290e-04-9.094947017729e-13 0.000000000000e+00
    2.700000000000e+01-5.215625000000e+01 4.678409160235e-09 7.634019290403e-02
   -2.764165401459e-06 2.068948256783e-02 1.657754182816e-06 5.153671957016e+03
    0.000000000000e+00-3.054738044739e-07-1.496919787415e+00-1.247972249985e-07
    9.647397586776e-01 3.537500000000e+02-1.457176674400e+00-8.701791035953e-09
   -2.117945363783e-10 1.000000000000e+00 2.193000000000e+03 0.000000000000e+00
    2.400000000000e+00 0.000000000000e+00-1.769512891769e-08 2.700000000000e+01
   -7.200000000000e+03 4.000000000000e+00
 1 22  1 16  0  0  0.0 4.563094116747e-04-9.777068044059e-12 0.000000000000e+00
    6.600000000000e+01-7.768750000000e+01 4.187317275715e-09-8.592688379390e-02
   -3.956258296967e-06 1.126142579596e-02 1.383945345879e-06 5.153671445847e+03
    0.000000000000e+00-9.313225746155e-09-1.408241833508e+00 1.620501279831e-07
    9.864045952764e-01 3.635625000000e+02 8.821663746619e-01-8.337490147073e-09
   -2.800116636097e-10 1.000000000000e+00 2.193000000000e+03 0.000000000000e+00
    2.400000000000e+00 0.000000000000e+00 5.122274160385e-09 6.600000000000e+01
   -7.200000000000e+03 4.000000000000e+00
10 22  1 16  0  0  0.0-2.945787273347e-04-9.663381206337e-12 0.000000000000e+00
    1.900000000000e+01-1.103125000000e+02 3.743370212109e-09-2.094030602700e+00
   -5.800276994705e-06 7.432312588207e-03 1.026317477226e-05 5.153686370850e+03
    0.000000000000e+00-6.705522537231e-08-3.755757543177e-01-1.024454832077e-07
    9.724040742700e-01 1.868437500000e+02-2.536577450541e+00-7.453881912672e-09
    1.860791795162e-10 1.000000000000e+00 2.193000000000e+03 0.000000000000e+00
    2.400000000000e+00 0.000000000000e+00 2.328306436539e-09 1.900000000000e+01
   -7.200000000000e+03 4.000000000000e+00
 5 22  1 16  0  0  0.0-6.803032010794e-05-1.250555214938e-12 0.000000000000e+00
    1.010000000000e+02-1.040937500000e+02 4.169102231271e-09 2.560176248748e+00
   -5.453824996948e-06 5.898777395487e-03 9.130686521530e-06 5.153655954361e+03
    0.000000000000e+00 7.636845111847e-08-4.127559167807e-01-7.264316082001e-08
    9.595453754536e-01 2.040312500000e+02 1.012982983104e+00-7.718178635977e-09
    6.250260348431e-11 1.000000000000e+00 2.193000000000e+03 0.000000000000e+00
    2.400000000000e+00 0.000000000000e+00-1.117587089539e-08 1.010000000000e+02
   -7.200000000000e+03 4.000000000000e+00
